HAWK-5A                 
1 52757U 22057AB  26185.90687787  .00029530  00000+0  49041-3 0  9995
2 52757  97.6628 345.9084 0004235  16.9021 343.2371 15.52050583229091
HAWK-6B                 
1 55324U 23011A   26185.55992019  .00007228  00000+0  30808-3 0  9998
2 55324  40.4975 250.7337 0002501 181.0595 179.0210 15.23089219190497
HAWK-6C                 
1 55326U 23011C   26184.90360274  .00005215  00000+0  22466-3 0  9995
2 55326  40.4962 251.3992 0002713 156.9532 203.1400 15.23076788190404
HAWK-6A                 
1 55327U 23011D   26185.23148657  .00005461  00000+0  23487-3 0  9999
2 55327  40.4973 251.1123 0002330 159.0121 201.0785 15.23081616190458
HAWK-7A                 
1 56191U 23054P   26185.66731788  .00009222  00000+0  34479-3 0  9998
2 56191  97.2676  72.5599 0002658  14.1310 346.0004 15.27550832179696
HAWK-7B                 
1 56193U 23054R   26185.66724862  .00009897  00000+0  36977-3 0  9998
2 56193  97.2702  70.8301 0002451  35.6859 324.4544 15.27554264179699
HAWK-7C                 
1 56200U 23054Y   26185.66713433  .00009800  00000+0  36618-3 0  9995
2 56200  97.2678  71.5932 0002160  23.6489 336.4850 15.27553253179691
